NORAD_CAT_ID,OBJECT_NAME,OBJECT_TYPE,EPOCH,MEAN_MOTION,ECCENTRICITY,INCLINATION,RA_OF_ASC_NODE,ARG_OF_PERICENTER,MEAN_ANOMALY,BSTAR,MEAN_MOTION_DOT,MEAN_MOTION_DDOT,TLE_LINE0,TLE_LINE1,TLE_LINE2,SEMIMAJOR_AXIS,PERIOD,APOGEE,PERIGEE,DECAYED
52098.0,STARLINK-3665,PAYLOAD,2022-06-30 14:00:01,15.08834052,0.0001556,53.2193,20.9982,86.2376,86.0803,0.00046153,7.064e-05,0.0,0 STARLINK-3665,1 52098U 22029L   22181.58334491  .00007064  00000-0  46153-3 0  9999,2 52098  53.2193  20.9982 0001556  86.2376  86.0803 15.08834052  1303,6917.899,95.438,540.84,538.687,0.0
52098.0,STARLINK-3665,PAYLOAD,2022-06-30 22:00:00,15.08821105,0.000159,53.2193,19.5036,76.4156,107.4971,0.0015895999999999,0.00025088,0.0,0 STARLINK-3665,1 52098U 22029L   22181.91667824  .00025088  00000-0  15896-2 0  9990,2 52098  53.2193  19.5036 0001590  76.4156 107.4971 15.08821105 17184,6917.938,95.439,540.903,538.703,0.0
52098.0,STARLINK-3665,PAYLOAD,2022-07-01 14:00:01,15.08848757,0.0001582,53.2198,16.5092,85.4901,121.5935,7.278800000000001e-05,8.71e-06,0.0,0 STARLINK-3665,1 52098U 22029L   22182.58334491  .00000871  00000-0  72788-4 0  9993,2 52098  53.2198  16.5092 0001582  85.4901 121.5935 15.08848757  1303,6917.854,95.437,540.813,538.624,0.0
52098.0,STARLINK-3665,PAYLOAD,2022-07-01 22:00:00,15.08829759,0.000161,53.2198,15.0145,75.6825,143.0118,0.0019488,0.00030855,0.0,0 STARLINK-3665,1 52098U 22029L   22182.91667824  .00030855  00000-0  19488-2 0  9990,2 52098  53.2198  15.0145 0001610  75.6825 143.0118 15.08829759 17337,6917.9119999999975,95.438,540.89,538.663,0.0
52098.0,STARLINK-3665,PAYLOAD,2022-07-02 14:00:01,15.08839028,0.000146,53.2203,12.0203,85.1698,156.717,-0.00015322,-2.726e-05,0.0,0 STARLINK-3665,1 52098U 22029L   22183.58334491 -.00002726  00000-0 -15322-3 0  9997,2 52098  53.2203  12.0203 0001460  85.1698 156.7170 15.08839028 17433,6917.8830000000025,95.438,540.758,538.738,0.0
52098.0,STARLINK-3665,PAYLOAD,2022-07-02 22:00:00,15.08821635,0.0001493,53.2203,10.5256,74.5112,178.9805,0.0026124,0.00041512,0.0,0 STARLINK-3665,1 52098U 22029L   22183.91667824  .00041512  00000-0  26124-2 0  9998,2 52098  53.2203  10.5256 0001493  74.5112 178.9805 15.08821635  1308,6917.937,95.439,540.8340000000002,538.769,0.0
52098.0,STARLINK-3665,PAYLOAD,2022-07-03 14:00:01,15.08876518,0.0001468,53.2206,7.5315,86.04,190.6486,-0.0035723,-0.0005675,0.0,0 STARLINK-3665,1 52098U 22029L   22184.58334491 -.00056750  00000-0 -35723-2 0  9990,2 52098  53.2206   7.5315 0001468  86.0400 190.6486 15.08876518  1309,6917.769,95.435,540.649,538.618,0.0
52098.0,STARLINK-3665,PAYLOAD,2022-07-03 22:00:00,15.08821425,0.000151,53.2204,6.0367,76.5349,211.768,-0.00037567,-6.259e-05,0.0,0 STARLINK-3665,1 52098U 22029L   22184.91667824 -.00006259  00000-0 -37567-3 0  9994,2 52098  53.2204   6.0367 0001510  76.5349 211.7680 15.08821425  1300,6917.937,95.439,540.847,538.758,0.0
52098.0,STARLINK-3665,PAYLOAD,2022-07-04 14:00:01,15.08824512,0.0001378,53.2206,3.043,87.5818,223.84,-0.00090844,-0.0001471,0.0,0 STARLINK-3665,1 52098U 22029L   22185.58334491 -.00014710  00000-0 -90844-3 0  9997,2 52098  53.2206   3.0430 0001378  87.5818 223.8400 15.08824512 17733,6917.928000000001,95.439,540.746,538.839,0.0
52098.0,STARLINK-3665,PAYLOAD,2022-07-04 22:00:00,15.08797847,0.0001401,53.2203,1.5483,77.3829,245.6181,0.0028341,0.00045053,0.0,0 STARLINK-3665,1 52098U 22029L   22185.91667824  .00045053  00000-0  28341-2 0  9997,2 52098  53.2203   1.5483 0001401  77.3829 245.6181 15.08797847  1301,6918.009,95.44,540.8430000000002,538.905,0.0
52098.0,STARLINK-3665,PAYLOAD,2022-07-05 06:00:00,15.08819165,0.0001322,53.2201,0.0505,86.1666,248.4029,0.00063252,9.787e-05,0.0,0 STARLINK-3665,1 52098U 22029L   22186.25001157  .00009787  00000-0  63252-3 0  9991,2 52098  53.2201   0.0505 0001322  86.1666 248.4029 15.08819165 17832,6917.944,95.439,540.724,538.895,0.0
52098.0,STARLINK-3665,PAYLOAD,2022-07-05 14:00:01,15.08844478,0.0001354,53.2203,358.5547,88.3676,257.7667,-0.001224,-0.00019717,0.0,0 STARLINK-3665,1 52098U 22029L   22186.58334491 -.00019717  00000-0 -12240-2 0  9993,2 52098  53.2203 358.5547 0001354  88.3676 257.7667 15.08844478  1302,6917.8669999999975,95.437,540.668,538.795,0.0
52098.0,STARLINK-3665,PAYLOAD,2022-07-05 22:00:00,15.08811777,0.0001365,53.2198,357.0598,78.7709,278.9591,0.002793,0.00044408,0.0,0 STARLINK-3665,1 52098U 22029L   22186.91667824  .00044408  00000-0  27930-2 0  9994,2 52098  53.2198 357.0598 0001365  78.7709 278.9591 15.08811777  1304,6917.967,95.439,540.776,538.887,0.0
52098.0,STARLINK-3665,PAYLOAD,2022-07-06 14:00:01,15.08857432,0.0001356,53.2198,354.0663,88.0517,292.8425,-0.001573,-0.00025247,0.0,0 STARLINK-3665,1 52098U 22029L   22187.58334491 -.00025247  00000-0 -15730-2 0  9996,2 52098  53.2198 354.0663 0001356  88.0517 292.8425 15.08857432 18043,6917.8269999999975,95.436,540.63,538.754,0.0
52098.0,STARLINK-3665,PAYLOAD,2022-07-06 22:00:00,15.08823691,0.0001341,53.2195,352.5712,78.2956,314.2075,0.0027761,0.00044151,0.0,0 STARLINK-3665,1 52098U 22029L   22187.91667824  .00044151  00000-0  27761-2 0  9992,2 52098  53.2195 352.5712 0001341  78.2956 314.2075 15.08823691  1301,6917.93,95.439,540.7230000000002,538.868,0.0
52098.0,STARLINK-3665,PAYLOAD,2022-07-07 14:00:01,15.08878727,0.0001329,53.2194,349.5774,85.6961,330.0091,-0.0025061,-0.00039993,0.0,0 STARLINK-3665,1 52098U 22029L   22188.58334491 -.00039993  00000-0 -25061-2 0  9998,2 52098  53.2194 349.5774 0001329  85.6961 330.0091 15.08878727  1302,6917.762,95.435,540.5459999999998,538.7080000000002,0.0
52098.0,STARLINK-3665,PAYLOAD,2022-07-07 20:06:48,15.08849745,0.0001306,53.221,348.4329,84.2819,275.8323,0.00014045,1.949e-05,0.0,0 STARLINK-3665,1 52098U 22029L   22188.83806481  .00001949  00000-0  14045-3 0  9998,2 52098  53.2210 348.4329 0001306  84.2819 275.8323 15.08849745 18239,6917.851,95.437,540.619,538.812,0.0
52098.0,STARLINK-3665,PAYLOAD,2022-07-08 08:00:01,15.08823511,0.0001178,53.2188,346.2089,86.6027,85.2346,0.0027899,0.00044373,0.0,0 STARLINK-3665,1 52098U 22029L   22189.33334491  .00044373  00000-0  27899-2 0  9999,2 52098  53.2188 346.2089 0001178  86.6027  85.2346 15.08823511 18305,6917.931,95.439,540.611,538.981,0.0
52098.0,STARLINK-3665,PAYLOAD,2022-07-08 14:00:01,15.08883189,0.0001240999999999,53.2195,345.0883,81.3143,9.2391,-0.00091926,-0.00014905,0.0,0 STARLINK-3665,1 52098U 22029L   22189.58334491 -.00014905  00000-0 -91926-3 0  9999,2 52098  53.2195 345.0883 0001241  81.3143   9.2391 15.08883189 18341,6917.748000000001,95.435,540.472,538.755,0.0
52098.0,STARLINK-3665,PAYLOAD,2022-07-08 22:00:01,15.08879394,0.0001315999999999,53.2193,343.5929,71.0626,31.1968,-0.00035047,-5.867e-05,0.0,0 STARLINK-3665,1 52098U 22029L   22189.91668981 -.00005867  00000-0 -35047-3 0  9999,2 52098  53.2193 343.5929 0001316  71.0626  31.1968 15.08879394  1303,6917.76,95.435,540.535,538.715,0.0
52098.0,STARLINK-3665,PAYLOAD,2022-07-09 14:00:01,15.08831461,0.0001325,53.2198,340.5992,80.7341,44.6816,-0.0059216,-0.00093289,0.0,0 STARLINK-3665,1 52098U 22029L   22190.58334491 -.00093289  00000-0 -59216-2 0  9998,2 52098  53.2198 340.5992 0001325  80.7341  44.6816 15.08831461 18498,6917.906,95.438,540.688,538.855,0.0
52098.0,STARLINK-3665,PAYLOAD,2022-07-09 20:00:01,15.08748801,0.0001291,53.2198,339.478,72.4229,331.6636,0.0028495,0.0004524,0.0,0 STARLINK-3665,1 52098U 22029L   22190.83334491  .00045240  00000-0  28495-2 0  9993,2 52098  53.2198 339.4780 0001291  72.4229 331.6636 15.08748801  1301,6918.159000000002,95.443,540.9169999999998,539.131,0.0
52098.0,STARLINK-3665,PAYLOAD,2022-07-10 06:00:00,15.08774279,0.0001236,53.2199,337.6058,82.1375,66.3396,0.0041077,0.00065576,0.0,0 STARLINK-3665,1 52098U 22029L   22191.25001157  .00065576  00000-0  41077-2 0  9995,2 52098  53.2199 337.6058 0001236  82.1375  66.3396 15.08774279 18591,6918.081,95.442,540.8009999999998,539.091,0.0
52098.0,STARLINK-3665,PAYLOAD,2022-07-10 14:00:01,15.08829752,0.0001339,53.2201,336.1105,79.17699999999998,80.842,-0.0013459,-0.00021638,0.0,0 STARLINK-3665,1 52098U 22029L   22191.58334491 -.00021638  00000-0 -13459-2 0  9997,2 52098  53.2201 336.1105 0001339  79.1770  80.8420 15.08829752  1308,6917.9119999999975,95.438,540.703,538.85,0.0
52098.0,STARLINK-3665,PAYLOAD,2022-07-10 22:00:00,15.0881566,0.0001328,53.2198,334.6148,71.4826,100.1097,0.0015692,0.00024757,0.0,0 STARLINK-3665,1 52098U 22029L   22191.91667824  .00024757  00000-0  15692-2 0  9997,2 52098  53.2198 334.6148 0001328  71.4826 100.1097 15.08815660 18697,6917.955,95.439,540.738,538.901,0.0
52098.0,STARLINK-3665,PAYLOAD,2022-07-11 14:00:01,15.088536499999998,0.0001281999999999,53.2202,331.6217,78.57600000000002,116.1875,-0.0010964,-0.00017701,0.0,0 STARLINK-3665,1 52098U 22029L   22192.58334491 -.00017701  00000-0 -10964-2 0  9992,2 52098  53.2202 331.6217 0001282  78.5760 116.1875 15.08853650  1303,6917.839,95.437,540.591,538.817,0.0
52098.0,STARLINK-3665,PAYLOAD,2022-07-11 22:00:00,15.08849063,0.0001276,53.2198,330.1257,72.0176,134.3497,0.0010039,0.00015729,0.0,0 STARLINK-3665,1 52098U 22029L   22192.91667824  .00015729  00000-0  10039-2 0  9997,2 52098  53.2198 330.1257 0001276  72.0176 134.3497 15.08849063  1303,6917.853,95.437,540.6,538.835,0.0
52098.0,STARLINK-3665,PAYLOAD,2022-07-12 06:00:00,15.08850576,0.0001225,53.2199,328.6277,83.861,134.1259,0.00047042,7.209e-05,0.0,0 STARLINK-3665,1 52098U 22029L   22193.25001157  .00007209  00000-0  47042-3 0  9995,2 52098  53.2199 328.6277 0001225  83.8610 134.1259 15.08850576 18892,6917.848000000001,95.437,540.56,538.866,0.0
52098.0,STARLINK-3665,PAYLOAD,2022-07-12 14:00:01,15.08857422,0.0001338,53.2201,327.1329,78.5017,151.1084,-0.00059812,-9.799e-05,0.0,0 STARLINK-3665,1 52098U 22029L   22193.58334491 -.00009799  00000-0 -59812-3 0  9997,2 52098  53.2201 327.1329 0001338  78.5017 151.1084 15.08857422  1305,6917.8269999999975,95.436,540.618,538.7669999999998,0.0
